ONEWEB-0128             
1 47274U 20100S   25308.28380568 -.00000239  00000+0 -69905-3 0  9992
2 47274  87.8964  35.3804 0001981 104.9029 255.2319 13.12443936235244
ONEWEB-0129             
1 47275U 20100T   25308.72014316  .00000031  00000+0  49760-4 0  9993
2 47275  87.8992  35.2428 0002679  77.0821 283.0607 13.12441700235237
ONEWEB-0130             
1 47276U 20100U   25308.67146819 -.00000391  00000+0 -11223-2 0  9994
2 47276  87.8972  35.2484 0001923 102.5610 257.5734 13.12443772235192
ONEWEB-0131             
1 47277U 20100V   25308.66822748 -.00000577  00000+0 -16395-2 0  9997
2 47277  87.8978  35.2792 0001863 103.8212 256.3124 13.12442969235238
ONEWEB-0132             
1 47278U 20100W   25308.31625186  .00000468  00000+0  12657-2 0  9991
2 47278  87.8976  35.3510 0001775 102.5553 257.5774 13.12441794235084
ONEWEB-0133             
1 47279U 20100X   25308.48480422  .00000062  00000+0  13604-3 0  9996
2 47279  87.8969  35.2816 0001886 106.3352 253.7984 13.12440813235269
ONEWEB-0134             
1 47280U 20100Y   25308.68284226  .00000232  00000+0  61015-3 0  9992
2 47280  87.8973  35.2347 0002091 102.0640 258.0723 13.12443154235267
ONEWEB-0135             
1 47281U 20100Z   25308.50115266 -.00000411  00000+0 -11767-2 0  9990
2 47281  87.8979  35.3115 0002148 106.6645 253.4719 13.12441148235261
